# Made by eph2tle, compiled Oct  9 2023 15:42:32
# Run at Tue Oct 24 14:46:19 2023
#
# No updates
#
#    The following TLEs (Two-Line Elements) were generated by fitting
# a numerically-integrated ephemeris,  based on the orbit given below,
# to the SDP4/SGP4 models.  Each TLE is good for the interval between
# its epoch and the epoch of the subsequent TLE (usually one day).
# The maximum deviation between the numerically integrated ephemerides
# and the TLE-based ephemeris, in kilometers,  is given for each TLE
# as the "worst residual".
#
#    This fitting is done using the 'eph2tle' code packaged with Find_Orb.
# The code has details on how the TLEs were computed :
#
#    https://github.com/Bill-Gray/find_orb/eph2tle.cpp
#
#    Be warned:  the error given is that between the numerically
# integrated ephems and the TLE model.  There will usually be at
# least some additional difference between the ephems and the actual
# motion of the satellite,  especially if the ephemerides are based
# on a short arc.  If the following orbital elements say something
# like "[based on] 10 observations 2015 Jan. 1-13",  and the TLEs
# are for 2015 May,  the extrapolation may be tenuous at best.  If
# your application requires a specific level of accuracy,  you may
# want to contact me;  I can give you some idea as to the fit of the
# underlying data (and possibly TLEs based on newer data).
#
#   You can usually find the underlying observational data,  and the
# fitted orbit,  residuals,  ephemerides,  and sometimes some comments
# about the object,  among the pages listed at
#
#    https://www.projectpluto.com/pluto/mpecs/pseudo.htm
#
#    WARNING:  for this object,  "normal" TLEs cannot be fitted.  (This
# usually means an object with an hyperbolic or nearly-parabolic orbit.)
# For this and similar cases,   an alternative model is used,  in which
# most of the traditional TLE data is replaced by six signed 8-digit hex
# numbers.  These six numbers are a state vector,  numerically integrated
# using a simplified force model.  This is necessary for objects at L2 or
# L1,  and sometimes for objects in high orbits where the SDP4/SGP4 model
# fails.  Some documentation is in 'get_el.cpp' in the source code at
# https://www.github.com/Bill-Gray/sat_code ; look for 'hex' in that file,
# with the actual integration done in 'sdp4.cpp'.  But be aware:  it's my
# own extension,  doesn't work with other code,  and is therefore used
# only when necessary.
#
#    Also,  if you use a TLE outside the "correct" time range (between
# its MJD and that of the next TLE),  all bets are off.  I've carefully
# computed and minimized the worst error over the "correct" time frame,
# but the ephemeris may (or may not) diverge wildly outside of it.
#
# Ephem range: 60224.000000 60258.000000 1.000000
# Created Tue Oct 24 14:46:05 2023
# Ephemeris start:  7 Oct 2023  0:00:00
# Ephemeris end:   10 Nov 2023  0:00:00
# Times are all TDT
# Positions/velocities are in equatorial J2000
# Orbital elements:  2023-154C = NORAD 58015 = KuiperSat Centaur
#    Perihelion 2023 Oct 13.7772887 +/- 0.00354 TT = 18:39:17.73 (JD 2460231.2772887)
# Epoch 2023 Oct 15.0 TT = JDT 2460232.5   Earth MOID: 0.0001   Ma: 0.0903
# M   0.5899870526 +/- 0.0035         (J2000 ecliptic)             Find_Orb
# n   0.4825235762 +/- 0.00272        Peri.  188.3833716 +/- 0.031
# a   1.6098683316 +/- 0.00604        Node   192.6856527 +/- 0.033
# e   0.380678501 +/- 0.00232         Incl.    2.0950977 +/- 0.010
# P   2.04/746.06d           H 25.76  G  0.15   U  8.8
# q 0.9970260682 +/- 7.88e-7    Q 2.2227105949 +/- 0.0121
# From 29 observations 2023 Oct. 12-15; mean residual 0".265
#
# 1 NoradU COSPAR   Epoch.epoch     dn/dt/2  d2n/dt2/6 BSTAR    T El# C
# 2 NoradU Inclina RAAscNode Eccent  ArgPeri MeanAno  MeanMotion Rev# C

# Worst residual: 11.60 km
# MJD 60224.000000 (2023 Oct  7  0:00)
2023-154C = NORAD 58015 = KuiperSat Centaur
1 58015U 23154C   23279.99919926 -000JJ9F1 +001UUP3V +000592BLH 21231
2 58015                          -000DAVI8 +000WIVAL +0004P6FO     00

# Worst residual: 29.59 km
# MJD 60225.000000 (2023 Oct  8  0:00)
2023-154C = NORAD 58015 = KuiperSat Centaur
1 58015U 23154C   23280.99919926 -003KQ8OJ +0096C8P5 +0018BF4CH 21235
2 58015                          -000CEAVI +000TSWS2 +0004GSSH     08

# Worst residual: 1.73 km
# MJD 60226.000000 (2023 Oct  9  0:00)
2023-154C = NORAD 58015 = KuiperSat Centaur
1 58015U 23154C   23281.99919926 -006J76LL +00GA4X66 +002AOII9H 21230
2 58015                          -000C9PXY +000TGUOZ +0004F3UR     08

# Worst residual: 0.92 km
# MJD 60227.000000 (2023 Oct 10  0:00)
2023-154C = NORAD 58015 = KuiperSat Centaur
1 58015U 23154C   23282.99919926 -009GXL8W +00NC0UX7 +003CQUZ7H 21239
2 58015                          -000C7KBM +000TBCFU +0004E622     03

# Worst residual: 1.06 km
# MJD 60228.000000 (2023 Oct 11  0:00)
2023-154C = NORAD 58015 = KuiperSat Centaur
1 58015U 23154C   23283.99919926 -00CE8M3I +00UCU16F +004EMD00H 21238
2 58015                          -000C617X +000T7KGG +0004DHF7     04

# Worst residual: 1.35 km
# MJD 60229.000000 (2023 Oct 12  0:00)
2023-154C = NORAD 58015 = KuiperSat Centaur
1 58015U 23154C   23284.99919926 -00FB7BTU +011CTNX8 +005GCI15H 21235
2 58015                          -000C4O5N +000T4EQK +0004CWYC     09

# Worst residual: 1.71 km
# MJD 60230.000000 (2023 Oct 13  0:00)
2023-154C = NORAD 58015 = KuiperSat Centaur
1 58015U 23154C   23285.99919926 -00I7UBH0 +018C364G +006HY1NXH 21234
2 58015                          -000C3ARP +000T1HCC +0004CEZL     00

# Worst residual: 2.07 km
# MJD 60231.000000 (2023 Oct 14  0:00)
2023-154C = NORAD 58015 = KuiperSat Centaur
1 58015U 23154C   23286.99919926 -00L453GY +01FANQW9 +007JFIJDH 21238
2 58015                          -000C1TYV +000SYMDK +0004BYXQ     07

# Worst residual: 2.42 km
# MJD 60232.000000 (2023 Oct 15  0:00)
2023-154C = NORAD 58015 = KuiperSat Centaur
1 58015U 23154C   23287.99919926 -00O02M9L +01M8JLUH +008KTC83H 21239
2 58015                          -000C081H +000SVR2J +0004BKM6     03

# Worst residual: 2.74 km
# MJD 60233.000000 (2023 Oct 16  0:00)
2023-154C = NORAD 58015 = KuiperSat Centaur
1 58015U 23154C   23288.99919926 -00QVLIQC +01T5QHDM +009M3XH7H 21236
2 58015                          -000BYFY5 +000SSU16 +0004B7ZQ     05

# Worst residual: 3.03 km
# MJD 60234.000000 (2023 Oct 17  0:00)
2023-154C = NORAD 58015 = KuiperSat Centaur
1 58015U 23154C   23289.99919926 -00TQO8HR +02027UYM +00ANBOYYH 21231
2 58015                          -000BWH0H +000SPUI7 +0004AX2G     05

# Worst residual: 3.33 km
# MJD 60235.000000 (2023 Oct 18  0:00)
2023-154C = NORAD 58015 = KuiperSat Centaur
1 58015U 23154C   23290.99919926 -00WL926S +026XZ2XH +00BOH1BBH 21232
2 58015                          -000BUAQF +000SMS0P +0004ANTI     06

# Worst residual: 3.65 km
# MJD 60236.000000 (2023 Oct 19  0:00)
2023-154C = NORAD 58015 = KuiperSat Centaur
1 58015U 23154C   23291.99919926 -00ZFA6FG +02DSZE46 +00CPKCPOH 21233
2 58015                          -000BRWNW +000SJM7P +0004AG68     07

# Worst residual: 4.00 km
# MJD 60237.000000 (2023 Oct 20  0:00)
2023-154C = NORAD 58015 = KuiperSat Centaur
1 58015U 23154C   23292.99919926 -0128PNU7 +02KN7YEY +00DQM0GMH 21233
2 58015                          -000BPAB8 +000SGCRD +0004A9ZQ     03

# Worst residual: 4.42 km
# MJD 60238.000000 (2023 Oct 21  0:00)
2023-154C = NORAD 58015 = KuiperSat Centaur
1 58015U 23154C   23293.99919926 -0151HGD2 +02RGNUW4 +00ERMCF7H 21239
2 58015                          -000BMF2N +000SCZBU +0004A52Z     05

# Worst residual: 4.91 km
# MJD 60239.000000 (2023 Oct 22  0:00)
2023-154C = NORAD 58015 = KuiperSat Centaur
1 58015U 23154C   23294.99919926 -017TJBY5 +02Y9A3RK +00FSLMK2H 21237
2 58015                          -000BJA5L +000S9HLF +0004A179     07

# Worst residual: 5.46 km
# MJD 60240.000000 (2023 Oct 23  0:00)
2023-154C = NORAD 58015 = KuiperSat Centaur
1 58015U 23154C   23295.99919926 -01AKSUO7 +03511MJL +00GTK2MAH 21239
2 58015                          -000BFUIN +000S5V9I +00049Y31     03

# Worst residual: 6.02 km
# MJD 60241.000000 (2023 Oct 24  0:00)
2023-154C = NORAD 58015 = KuiperSat Centaur
1 58015U 23154C   23296.99919926 -01DB7AD4 +03BRXAKK +00HUHU3JH 21238
2 58015                          -000BC2TM +000S2453 +00049VHB     01

# Worst residual: 6.50 km
# MJD 60242.000000 (2023 Oct 25  0:00)
2023-154C = NORAD 58015 = KuiperSat Centaur
1 58015U 23154C   23297.99919926 -01G0NJVO +03IHVY9M +00IVF0KSH 21234
2 58015                          -000B7XEJ +000RY888 +00049T7L     03

# Worst residual: 6.84 km
# MJD 60243.000000 (2023 Oct 26  0:00)
2023-154C = NORAD 58015 = KuiperSat Centaur
1 58015U 23154C   23298.99919926 -01IP24CV +03P6WHCY +00JWBON1H 21239
2 58015                          -000B3CAQ +000RU7UI +00049R8H     03

# Worst residual: 6.98 km
# MJD 60244.000000 (2023 Oct 27  0:00)
2023-154C = NORAD 58015 = KuiperSat Centaur
1 58015U 23154C   23299.99919926 -01LCAZ1D +03VUXW7O +00KX7XFAH 21232
2 58015                          -000AY9CN +000RQ3RO +00049PQD     07

# Worst residual: 6.98 km
# MJD 60245.000000 (2023 Oct 28  0:00)
2023-154C = NORAD 58015 = KuiperSat Centaur
1 58015U 23154C   23300.99919926 -01NY9KCL +042HZG2V +00LY3WQRH 21237
2 58015                          -000ASMEE +000RLXAB +00049P5E     00

# Worst residual: 6.98 km
# MJD 60246.000000 (2023 Oct 29  0:00)
2023-154C = NORAD 58015 = KuiperSat Centaur
1 58015U 23154C   23301.99919926 -01QISUSV +04940ROR +00MYZXH4H 21239
2 58015                          -000AMDHW +000RHQ7R +00049Q7J     09

# Worst residual: 7.09 km
# MJD 60247.000000 (2023 Oct 30  0:00)
2023-154C = NORAD 58015 = KuiperSat Centaur
1 58015U 23154C   23302.99919926 -01T1RDSV +04FP1ZBG +00NZWHSCH 21235
2 58015                          -000AFH4C +000RDKS2 +00049TV2     03

